O3B FM5                 
1 39188U 13031A   22306.80147035 -.00000023  00000+0  00000+0 0  9992
2 39188   0.0656  14.3253 0002725 212.6820 132.9745  5.00115330170886
O3B FM4                 
1 39189U 13031B   22306.45766915 -.00000023  00000+0  00000+0 0  9998
2 39189   0.0471 352.7516 0002670 233.6863 133.5447  5.00115798170886
O3B FM2                 
1 39190U 13031C   22306.14933364 -.00000022  00000+0  00000+0 0  9999
2 39190   0.0457 346.6209 0002676 238.0159 135.3466  5.00115056170929
O3B PFM                 
1 39191U 13031D   22306.77528313 -.00000023  00000+0  00000+0 0  9994
2 39191   0.0578  10.0662 0002703 212.5650 137.3525  5.00115681170510
O3B FM3                 
1 40079U 14038A   22307.22986310 -.00000023  00000+0  00000+0 0  9995
2 40079   0.0517 359.9308 0004706 201.7834 158.2704  5.00115322151995
O3B FM7                 
1 40080U 14038B   22306.77615069 -.00000023  00000+0  00000+0 0  9996
2 40080   0.0528 355.1474 0002242 270.1387  94.6930  5.00115478151724
O3B FM6                 
1 40081U 14038C   22307.40220880 -.00000023  00000+0  00000+0 0  9991
2 40081   0.0507 359.6805 0002772 224.1384 136.1637  5.00115275152028
O3B FM8                 
1 40082U 14038D   22306.25676228 -.00000022  00000+0  00000+0 0  9994
2 40082   0.0482 357.5917 0002657 221.9859 140.4078  5.00115620151767
O3B FM10                
1 40348U 14083A   22307.28232018 -.00000023  00000+0  00000+0 0  9999
2 40348   0.0527   9.6025 0002675 212.8409 137.5405  5.00115050143935
O3B FM11                
1 40349U 14083B   22306.69608093 -.00000023  00000+0  00000+0 0  9994
2 40349   0.0568   6.9399 0002765 230.6658 122.3723  5.00115340143745
O3B FM12                
1 40350U 14083C   22306.72330068 -.00000023  00000+0  00000+0 0  9994
2 40350   0.0559   6.5805 0002847 218.5333 134.8677  5.00115204143904
O3B FM9                 
1 40351U 14083D   22306.75011245 -.00000023  00000+0  00000+0 0  9991
2 40351   0.0579   6.7492 0002664 217.2592 135.9751  5.00116058143915
DIAMOND RED             
1 42783U 17036U   22306.38634616  .00014344  00000+0  49581-3 0  9996
2 42783  97.1852 342.5245 0009566 188.0462 172.0628 15.29972561298011
DIAMOND GREEN           
1 42785U 17036W   22307.10594198  .00017441  00000+0  60063-3 0  9998
2 42785  97.1856 343.2862 0009434 186.6917 173.4200 15.30052287298111
DIAMOND BLUE            
1 42786U 17036X   22307.10519456  .00017044  00000+0  58730-3 0  9990
2 42786  97.1857 343.2772 0009485 187.1523 172.9584 15.30038979298119
LEO VANTAGE 1           
1 43113U 18004C   22307.21253244  .00004887  00000+0  38958-3 0  9994
2 43113  99.2433  42.0849 0399830 134.2722 229.2022 14.54510849244408
O3B FM15                
1 43231U 18024A   22306.41627604 -.00000023  00000+0  00000+0 0  9995
2 43231   0.0501  12.2044 0003013 211.7698 136.0066  5.00116040 84859
O3B FM16                
1 43232U 18024B   22307.46913080 -.00000023  00000+0  00000+0 0  9998
2 43232   0.0479  16.3679 0002996 209.2589 134.3532  5.00115866 85061
O3B FM14                
1 43233U 18024C   22306.10958819 -.00000022  00000+0  00000+0 0  9997
2 43233   0.0466  17.4803 0002878 209.5889 132.9115  5.00115281 84762
O3B FM13                
1 43234U 18024D   22305.96322640 -.00000022  00000+0  00000+0 0  9998
2 43234   0.0599  12.8340 0003801 213.6873 133.4520  5.00115173 84868
O3B FM20                
1 44112U 19020A   22306.73595741 -.00000023  00000+0  00000+0 0  9992
2 44112   0.0521   9.1572 0003250 220.7146 130.1044  5.00115381 65411
O3B FM19                
1 44113U 19020B   22305.76333430 -.00000022  00000+0  00000+0 0  9999
2 44113   0.0729  15.3549 0002501 176.8074 167.8367  5.00116044 65236
O3B FM17                
1 44114U 19020C   22305.64391190 -.00000022  00000+0  00000+0 0  9994
2 44114   0.0331   3.5373 0003135 219.9915 136.4515  5.00115542 65315
O3B FM18                
1 44115U 19020D   22306.78975645 -.00000023  00000+0  00000+0 0  9995
2 44115   0.0526   9.2457 0002928 213.3968 137.3395  5.00115718 65493
SALSAT                  
1 46495U 20068K   22306.40880736  .00003723  00000+0  26479-3 0  9998
2 46495  97.7410 247.8800 0016571 164.4421 195.7318 15.05186779114930
